DELTA 2 R/B(1)          
1 20453U 90008B   26031.16060837  .00053304  00000+0  72612-3 0  9999
2 20453  35.6064  60.1721 0098546 270.1117  88.8325 15.50790330920297
COSMOS 2058             
1 20465U 90010A   26031.23560667  .00003586  00000+0  21286-3 0  9997
2 20465  82.4644  84.3262 0011955 101.1685 259.0889 15.10975983936585
SL-14 R/B               
1 20466U 90010B   26031.25365344  .00000578  00000+0  67068-4 0  9992
2 20466  82.5041 302.5516 0021267  65.0839 295.2583 14.83533028922937
SL-14 R/B               
1 20511U 90018B   26031.10029837  .00000488  00000+0  58367-4 0  9991
2 20511  82.5191 258.2322 0015515 211.5547 148.4738 14.82105660917019
HST                     
1 20580U 90037B   26031.09010986  .00007960  00000+0  26779-3 0  9994
2 20580  28.4678 296.3809 0001992  60.4033 299.6761 15.28870007767554
SL-16 R/B               
1 20625U 90046B   26031.30119084 -.00000193  00000+0 -74917-4 0  9998
2 20625  70.9994  16.4333 0014368 351.3727   8.7146 14.15005386843100
COSMOS 2084             
1 20663U 90055A   26031.26107164  .00002912  00000+0  21492-3 0  9999
2 20663  62.7906 103.2118 0023140 182.4795 177.6194 15.05403968930683
SL-6 R/B(2)             
1 20666U 90055D   26031.25967626  .00002652  00000+0  20796-3 0  9995
2 20666  62.7839  21.1160 0019276 335.8244  24.1948 15.03380118932565
SL-8 R/B                
1 20775U 90078B   26030.99560381  .00015774  00000+0  46825-3 0  9998
2 20775  82.9047 285.1732 0367681 140.2718 222.6065 14.87798152803696
SL-8 R/B                
1 21088U 91006B   26031.00996852  .00000019  00000+0  32275-5 0  9999
2 21088  82.9420 198.0616 0023320 138.5846 339.2853 13.77492027758883
OKEAN-3                 
1 21397U 91039A   26031.30477382  .00003440  00000+0  24310-3 0  9993
2 21397  82.5174  13.0504 0016093  97.3173 262.9883 15.04502994859417
COSMOS 2151             
1 21422U 91042A   26031.26063572  .00002697  00000+0  21481-3 0  9992
2 21422  82.4980 119.7777 0012580 179.6294 180.4942 14.99952884857587
