CCSDS_OMM_VERS = 2.0
CREATION_DATE  = 
ORIGINATOR     = 

OBJECT_NAME    = DELTA 2 R/B(1)
OBJECT_ID      = 1990-008B
CENTER_NAME    = EARTH
REF_FRAME      = TEME
TIME_SYSTEM    = UTC
MEAN_ELEMENT_THEORY = SGP/SGP4

EPOCH          = 2026-01-31T03:51:16.563168
MEAN_MOTION    = 15.50790330
ECCENTRICITY   = .00985468
INCLINATION    = 35.6064
RA_OF_ASC_NODE = 60.1721
ARG_OF_PERICENTER = 270.1117
MEAN_ANOMALY   = 88.8325

EPHEMERIS_TYPE = 0
CLASSIFICATION_TYPE = U
NORAD_CAT_ID   = 20453
ELEMENT_SET_NO = 999
REV_AT_EPOCH   = 92029
BSTAR          = .72612212E-3
MEAN_MOTION_DOT = .53304E-3
MEAN_MOTION_DDOT = 0

CCSDS_OMM_VERS = 2.0
CREATION_DATE  = 
ORIGINATOR     = 

OBJECT_NAME    = COSMOS 2058
OBJECT_ID      = 1990-010A
CENTER_NAME    = EARTH
REF_FRAME      = TEME
TIME_SYSTEM    = UTC
MEAN_ELEMENT_THEORY = SGP/SGP4

EPOCH          = 2026-01-31T05:39:16.416288
MEAN_MOTION    = 15.10975983
ECCENTRICITY   = .0011955
INCLINATION    = 82.4644
RA_OF_ASC_NODE = 84.3262
ARG_OF_PERICENTER = 101.1685
MEAN_ANOMALY   = 259.0889

EPHEMERIS_TYPE = 0
CLASSIFICATION_TYPE = U
NORAD_CAT_ID   = 20465
ELEMENT_SET_NO = 999
REV_AT_EPOCH   = 93658
BSTAR          = .21286209E-3
MEAN_MOTION_DOT = .3586E-4
MEAN_MOTION_DDOT = 0

CCSDS_OMM_VERS = 2.0
CREATION_DATE  = 
ORIGINATOR     = 

OBJECT_NAME    = SL-14 R/B
OBJECT_ID      = 1990-010B
CENTER_NAME    = EARTH
REF_FRAME      = TEME
TIME_SYSTEM    = UTC
MEAN_ELEMENT_THEORY = SGP/SGP4

EPOCH          = 2026-01-31T06:05:15.657216
MEAN_MOTION    = 14.83533028
ECCENTRICITY   = .00212671
INCLINATION    = 82.5041
RA_OF_ASC_NODE = 302.5516
ARG_OF_PERICENTER = 65.0839
MEAN_ANOMALY   = 295.2583

EPHEMERIS_TYPE = 0
CLASSIFICATION_TYPE = U
NORAD_CAT_ID   = 20466
ELEMENT_SET_NO = 999
REV_AT_EPOCH   = 92293
BSTAR          = .67067615E-4
MEAN_MOTION_DOT = .578E-5
MEAN_MOTION_DDOT = 0

CCSDS_OMM_VERS = 2.0
CREATION_DATE  = 
ORIGINATOR     = 

OBJECT_NAME    = SL-14 R/B
OBJECT_ID      = 1990-018B
CENTER_NAME    = EARTH
REF_FRAME      = TEME
TIME_SYSTEM    = UTC
MEAN_ELEMENT_THEORY = SGP/SGP4

EPOCH          = 2026-01-31T02:24:25.779168
MEAN_MOTION    = 14.82105660
ECCENTRICITY   = .0015515
INCLINATION    = 82.5191
RA_OF_ASC_NODE = 258.2322
ARG_OF_PERICENTER = 211.5547
MEAN_ANOMALY   = 148.4738

EPHEMERIS_TYPE = 0
CLASSIFICATION_TYPE = U
NORAD_CAT_ID   = 20511
ELEMENT_SET_NO = 999
REV_AT_EPOCH   = 91701
BSTAR          = .58366746E-4
MEAN_MOTION_DOT = .488E-5
MEAN_MOTION_DDOT = 0

CCSDS_OMM_VERS = 2.0
CREATION_DATE  = 
ORIGINATOR     = 

OBJECT_NAME    = HST
OBJECT_ID      = 1990-037B
CENTER_NAME    = EARTH
REF_FRAME      = TEME
TIME_SYSTEM    = UTC
MEAN_ELEMENT_THEORY = SGP/SGP4

EPOCH          = 2026-01-31T02:09:45.491904
MEAN_MOTION    = 15.28870007
ECCENTRICITY   = .00019927
INCLINATION    = 28.4678
RA_OF_ASC_NODE = 296.3809
ARG_OF_PERICENTER = 60.4033
MEAN_ANOMALY   = 299.6761

EPHEMERIS_TYPE = 0
CLASSIFICATION_TYPE = U
NORAD_CAT_ID   = 20580
ELEMENT_SET_NO = 999
REV_AT_EPOCH   = 76755
BSTAR          = .26779263E-3
MEAN_MOTION_DOT = .796E-4
MEAN_MOTION_DDOT = 0

CCSDS_OMM_VERS = 2.0
CREATION_DATE  = 
ORIGINATOR     = 

OBJECT_NAME    = SL-16 R/B
OBJECT_ID      = 1990-046B
CENTER_NAME    = EARTH
REF_FRAME      = TEME
TIME_SYSTEM    = UTC
MEAN_ELEMENT_THEORY = SGP/SGP4

EPOCH          = 2026-01-31T07:13:42.888576
MEAN_MOTION    = 14.15005386
ECCENTRICITY   = .00143682
INCLINATION    = 70.9994
RA_OF_ASC_NODE = 16.4333
ARG_OF_PERICENTER = 351.3727
MEAN_ANOMALY   = 8.7146

EPHEMERIS_TYPE = 0
CLASSIFICATION_TYPE = U
NORAD_CAT_ID   = 20625
ELEMENT_SET_NO = 999
REV_AT_EPOCH   = 84310
BSTAR          = -.74916875E-4
MEAN_MOTION_DOT = -.193E-5
MEAN_MOTION_DDOT = 0

CCSDS_OMM_VERS = 2.0
CREATION_DATE  = 
ORIGINATOR     = 

OBJECT_NAME    = COSMOS 2084
OBJECT_ID      = 1990-055A
CENTER_NAME    = EARTH
REF_FRAME      = TEME
TIME_SYSTEM    = UTC
MEAN_ELEMENT_THEORY = SGP/SGP4

EPOCH          = 2026-01-31T06:15:56.589696
MEAN_MOTION    = 15.05403968
ECCENTRICITY   = .00231403
INCLINATION    = 62.7906
RA_OF_ASC_NODE = 103.2118
ARG_OF_PERICENTER = 182.4795
MEAN_ANOMALY   = 177.6194

EPHEMERIS_TYPE = 0
CLASSIFICATION_TYPE = U
NORAD_CAT_ID   = 20663
ELEMENT_SET_NO = 999
REV_AT_EPOCH   = 93068
BSTAR          = .21492485E-3
MEAN_MOTION_DOT = .2912E-4
MEAN_MOTION_DDOT = 0

CCSDS_OMM_VERS = 2.0
CREATION_DATE  = 
ORIGINATOR     = 

OBJECT_NAME    = SL-6 R/B(2)
OBJECT_ID      = 1990-055D
CENTER_NAME    = EARTH
REF_FRAME      = TEME
TIME_SYSTEM    = UTC
MEAN_ELEMENT_THEORY = SGP/SGP4

EPOCH          = 2026-01-31T06:13:56.028864
MEAN_MOTION    = 15.03380118
ECCENTRICITY   = .00192769
INCLINATION    = 62.7839
RA_OF_ASC_NODE = 21.1160
ARG_OF_PERICENTER = 335.8244
MEAN_ANOMALY   = 24.1948

EPHEMERIS_TYPE = 0
CLASSIFICATION_TYPE = U
NORAD_CAT_ID   = 20666
ELEMENT_SET_NO = 999
REV_AT_EPOCH   = 93256
BSTAR          = .20796321E-3
MEAN_MOTION_DOT = .2652E-4
MEAN_MOTION_DDOT = 0

CCSDS_OMM_VERS = 2.0
CREATION_DATE  = 
ORIGINATOR     = 

OBJECT_NAME    = SL-8 R/B
OBJECT_ID      = 1990-078B
CENTER_NAME    = EARTH
REF_FRAME      = TEME
TIME_SYSTEM    = UTC
MEAN_ELEMENT_THEORY = SGP/SGP4

EPOCH          = 2026-01-30T23:53:40.169184
MEAN_MOTION    = 14.87798152
ECCENTRICITY   = .0367681
INCLINATION    = 82.9047
RA_OF_ASC_NODE = 285.1732
ARG_OF_PERICENTER = 140.2718
MEAN_ANOMALY   = 222.6065

EPHEMERIS_TYPE = 0
CLASSIFICATION_TYPE = U
NORAD_CAT_ID   = 20775
ELEMENT_SET_NO = 999
REV_AT_EPOCH   = 80369
BSTAR          = .46825E-3
MEAN_MOTION_DOT = .15774E-3
MEAN_MOTION_DDOT = 0

CCSDS_OMM_VERS = 2.0
CREATION_DATE  = 
ORIGINATOR     = 

OBJECT_NAME    = SL-8 R/B
OBJECT_ID      = 1991-006B
CENTER_NAME    = EARTH
REF_FRAME      = TEME
TIME_SYSTEM    = UTC
MEAN_ELEMENT_THEORY = SGP/SGP4

EPOCH          = 2026-01-31T00:14:21.280128
MEAN_MOTION    = 13.77492027
ECCENTRICITY   = .00233204
INCLINATION    = 82.9420
RA_OF_ASC_NODE = 198.0616
ARG_OF_PERICENTER = 138.5846
MEAN_ANOMALY   = 339.2853

EPHEMERIS_TYPE = 0
CLASSIFICATION_TYPE = U
NORAD_CAT_ID   = 21088
ELEMENT_SET_NO = 999
REV_AT_EPOCH   = 75888
BSTAR          = .3227452E-5
MEAN_MOTION_DOT = .19E-6
MEAN_MOTION_DDOT = 0

CCSDS_OMM_VERS = 2.0
CREATION_DATE  = 
ORIGINATOR     = 

OBJECT_NAME    = OKEAN-3
OBJECT_ID      = 1991-039A
CENTER_NAME    = EARTH
REF_FRAME      = TEME
TIME_SYSTEM    = UTC
MEAN_ELEMENT_THEORY = SGP/SGP4

EPOCH          = 2026-01-31T07:18:52.458048
MEAN_MOTION    = 15.04502994
ECCENTRICITY   = .00160936
INCLINATION    = 82.5174
RA_OF_ASC_NODE = 13.0504
ARG_OF_PERICENTER = 97.3173
MEAN_ANOMALY   = 262.9883

EPHEMERIS_TYPE = 0
CLASSIFICATION_TYPE = U
NORAD_CAT_ID   = 21397
ELEMENT_SET_NO = 999
REV_AT_EPOCH   = 85941
BSTAR          = .24309687E-3
MEAN_MOTION_DOT = .344E-4
MEAN_MOTION_DDOT = 0

CCSDS_OMM_VERS = 2.0
CREATION_DATE  = 
ORIGINATOR     = 

OBJECT_NAME    = COSMOS 2151
OBJECT_ID      = 1991-042A
CENTER_NAME    = EARTH
REF_FRAME      = TEME
TIME_SYSTEM    = UTC
MEAN_ELEMENT_THEORY = SGP/SGP4

EPOCH          = 2026-01-31T06:15:18.926208
MEAN_MOTION    = 14.99952884
ECCENTRICITY   = .00125802
INCLINATION    = 82.4980
RA_OF_ASC_NODE = 119.7777
ARG_OF_PERICENTER = 179.6294
MEAN_ANOMALY   = 180.4942

EPHEMERIS_TYPE = 0
CLASSIFICATION_TYPE = U
NORAD_CAT_ID   = 21422
ELEMENT_SET_NO = 999
REV_AT_EPOCH   = 85758
BSTAR          = .21480605E-3
MEAN_MOTION_DOT = .2697E-4
MEAN_MOTION_DDOT = 0

